ONEWEB-0517             
1 54135U 22138Y   23321.87556982  .00000004  00000+0 -21145-4 0  9996
2 54135  87.9175 132.5321 0001499  75.2569 284.8729 13.19723430 52540
ONEWEB-0518             
1 54136U 22138Z   23321.51545023  .00000027  00000+0  33862-4 0  9995
2 54136  87.9181 132.6035 0001673  83.7210 276.4113 13.19725705 52497
ONEWEB-0519             
1 54137U 22138AA  23321.99562250  .00000130  00000+0  29287-3 0  9999
2 54137  87.9173 132.5057 0001575  70.7888 289.3415 13.19725142 53438
ONEWEB-0520             
1 54138U 22138AB  23322.03036915  .00001978  00000+0  49055-2 0  9995
2 54138  87.9170 132.5016 0001268  72.3707 287.7564 13.19738386 53428
ONEWEB-0521             
1 54139U 22138AC  23322.51845125  .00000124  00000+0  27795-3 0  9990
2 54139  87.9172 132.4000 0001866  84.0958 276.0387 13.19726508 53466
ONEWEB-0522             
1 54140U 22138AD  23321.73973554  .00000138  00000+0  31299-3 0  9992
2 54140  87.9173 132.5571 0001377  88.5213 271.6077 13.19724723 52501
ONEWEB-0523             
1 54141U 22138AE  23322.44978449  .00008621  00000+0  21129-1 0  9994
2 54141  87.9166 101.9057 0003266 113.6242 246.5234 13.20839538 55865
ONEWEB-0524             
1 54142U 22138AF  23321.83116892  .00000013  00000+0  66943-6 0  9998
2 54142  87.9204 102.0238 0001682 139.6852 220.4407 13.20770422 54911
